[{"OBJECT_NAME":"STARLINK-2487","OBJECT_ID":"2021-027BE","EPOCH":"2026-03-10T00:00:02.999808","MEAN_MOTION":15.1061942,"ECCENTRICITY":0.00021427,"INCLINATION":53.0713,"RA_OF_ASC_NODE":150.193,"ARG_OF_PERICENTER":82.213,"MEAN_ANOMALY":69.5138,"EPHEMERIS_TYPE":0,"CLASSIFICATION_TYPE":"U","NORAD_CAT_ID":48144,"ELEMENT_SET_NO":999,"REV_AT_EPOCH":574,"BSTAR":0.083657273,"MEAN_MOTION_DOT":0.01515342,"MEAN_MOTION_DDOT":0},{"OBJECT_NAME":"BOTSAT-1","OBJECT_ID":"2025-052G","EPOCH":"2026-03-09T23:13:47.101728","MEAN_MOTION":15.25344695,"ECCENTRICITY":0.00042577,"INCLINATION":97.3996,"RA_OF_ASC_NODE":323.8586,"ARG_OF_PERICENTER":100.6807,"MEAN_ANOMALY":259.491,"EPHEMERIS_TYPE":0,"CLASSIFICATION_TYPE":"U","NORAD_CAT_ID":63216,"ELEMENT_SET_NO":999,"REV_AT_EPOCH":5482,"BSTAR":0.00045821867,"MEAN_MOTION_DOT":0.00011491,"MEAN_MOTION_DDOT":0}]
